IRIDIUM 921             
1 24873U 97034E   24116.60450717  .00037698  00000+0  10805-2 0  9999
2 24873  86.3795 314.0923 0005812  95.4598 264.7316 15.35727116467107
IRIDIUM 26              
1 24903U 97043A   24116.52308342  .00001339  00000+0  45165-3 0  9991
2 24903  86.3906 285.8650 0002241  85.8564 274.2889 14.36306565396772
IRIDIUM 22              
1 24907U 97043E   24116.53803599  .00001265  00000+0  43598-3 0  9996
2 24907  86.3910 289.0564 0002085  90.7471 269.3964 14.35197548396844
DUMMY MASS 1            
1 24925U 97048A   24116.60823590  .00001066  00000+0  11843-3 0  9999
2 24925  86.3334 328.2997 0006932 166.6000 193.5410 14.86156792443092
DUMMY MASS 2            
1 24926U 97048B   24116.63631662  .00001056  00000+0  11795-3 0  9995
2 24926  86.3336 329.8202 0007218 179.3197 180.8038 14.85915675442880
IRIDIUM 29              
1 24944U 97051A   24116.62706278  .00001031  00000+0  35094-3 0  9995
2 24944  86.3930 318.9565 0002112  94.8854 265.2583 14.35651583393349
IRIDIUM 33              
1 24946U 97051C   24116.60477482  .00000723  00000+0  25057-3 0  9992
2 24946  86.3844 318.2208 0008267  16.4812 343.6651 14.34324363392879
IRIDIUM 28              
1 24948U 97051E   24116.59611510  .00001059  00000+0  35381-3 0  9998
2 24948  86.3931 316.7234 0002297  79.5699 280.5757 14.36600961393948
